#dP2023  5 24  0  0  0.00000000      96 __u+U IGS14 FIT  IAC
## 2263 259200.00000000   900.00000000 60088 0.0000000000000
+  119   C06C07C08C09C10C11C12C13C14C16C19C20C21C22C23C24C25
+        C26C27C28C29C30C32C33C34C35C36C37C38C39C40C41C42C43
+        C44C45C46E02E03E04E05E07E08E09E10E11E12E13E14E15E18
+        E19E21E24E25E26E27E30E31E33E34E36G01G02G03G04G05G06
+        G07G08G09G10G11G12G13G14G15G16G17G18G19G20G21G22G23
+        G24G25G26G27G28G29G30G31G32J02J03J04R01R02R03R04R05
+        R07R08R09R11R12R13R14R15R16R17R18R19R20R21R22R24R25
++        13  8  8  7  7  7  7  8  7  7  5  6  6  6  6  6  6
++         6  6  6  6  6  6  6  6  6  6  6  6  6  6  6  6  6
++         6  6  6  4  4  4  5  4  4  4  4  4  4  4  5  4  4
++         4  4  4  4  4  4  4  4  4  5  4  3  3  6  4  3  4
++         3  3  3  5  4  3  3  3  4  4  4  3  4  4  3  4  3
++         3  3  4  3  4  3  3  4  3  9  9  9  8  7  7  7  6
++         7  7  7  6  6  8  7  7  7  7  7  8  8  6  7  7  8
%c M  cc GPS ccc cccc cccc cccc cccc ccccc ccccc ccccc ccccc
%c cc cc ccc ccc cccc cccc cccc cccc ccccc ccccc ccccc ccccc
%f  1.2500000  1.025000000  0.00000000000  0.000000000000000
%f  0.0000000  0.000000000  0.00000000000  0.000000000000000
%i    0    0    0    0      0      0      0      0         0
%i    0    0    0    0      0      0      0      0         0
/* INFORMATION & ANALYSIS CENTER (IAC)            FINAL DATA
/* S/V CLOCKS ARE ALIGNED TO GNSS TIME                      
/* G:C1WC2W R:C1PC2P E:C1XC5X C:C2IC6I J:C1CC2S             
/* PCV:IGS20_2247 OL/AL:FES2004  NONE     YN ORB:CoN CLK:CoN
*  2023 05 24  6 30  0.00000000
PC06  -7656.795249  23478.137904 -34140.106405   -187.946209
PC07 -16431.396298  37280.546785  10524.717765    -65.523356
PC08   -246.960147  36725.197338  20867.275393    478.071852
PC09   3211.138881  25503.134602 -32904.886975    617.719567
PC10  -8601.311698  37166.170308  17678.079706    -66.617792
PC11 -11361.254672  13638.879918  21586.781782    636.041941
PC12 -26063.131028   4688.611740   8821.024752    661.301531
PC13   4758.265456  39505.016959  14485.868765    281.378827
PC14 -12564.086231  24697.378451  -2978.284088    304.480186
PC16 -11726.301584  21620.753057 -34039.510946     67.975948
PC19   5493.525380 -24669.217797  11894.120847   -913.787999
PC20  16896.646585 -21741.661347  -4645.878192    548.695608
PC21 -18985.439074   5293.468763  19761.178953   -917.061163
PC22  -9626.872888 -13559.715770  22417.585335   -473.779387
PC23  16086.079123  22296.047844   4788.735273   -936.961906
PC24 -11401.967927  12517.600602 -22193.273673    -18.639150
PC25   4728.527055  24931.176335 -11639.304297    132.827599
PC26 -19233.919287  -5273.688009 -19518.608420   -124.704698
PC27  27887.896402    497.374625   -672.373060    144.757722
PC28  20888.772224  11056.943975  14838.803678    107.223903
PC29   -515.261928 -15984.218424 -22879.099162    124.537496
PC30  19972.522712 -11220.273076 -15933.038440     -0.516270
PC32  18941.659668  -5429.521632 -19750.559286   -557.946424
PC33  -5408.075111  24700.371004 -11772.134979   -885.333693
PC34 -18911.587960  11814.858617  16774.973471    177.531004
PC35 -20759.414382 -10695.600821 -15322.636404    621.541650
PC36  -3525.347848 -24823.983181  12272.281471   -423.670844
PC37  19317.630047   6966.654817  18919.296868   -784.055003
PC38  -6408.227077  32474.252033  26231.008583     80.420293
PC39 -16558.987832  20482.142065 -32925.263364     -3.051789
PC40 -23398.092483  33568.822475   9624.880520    -24.115498
PC41   9218.891646  14100.385252 -22189.012488   -937.203472
PC42 -17440.265070  20922.809088   6036.941415   -678.692399
PC43   -534.757665  16087.394705  22781.652156     22.867171
PC44 -27917.637028    379.250225    423.800345    116.226413
PC45 -16243.912999 -22061.047770  -5254.168706   -101.488219
PC46  10295.095421 -13825.412259  21940.446974    -56.314804
PE02   3202.463922  28541.111853   7186.872464     39.938826
PE03   2738.532694  17371.848310 -23803.554917    -19.464095
PE04 -21021.841773  -5233.791458  20181.694441   -129.149715
PE05 -17607.089972  19582.660661 -13501.872890    -64.576091
PE07  27400.721266 -10136.682918  -4789.742574    -47.392918
PE08  20774.292020   5305.049820 -20407.002631    -87.907777
PE09 -27376.463385  10060.489303   5003.043468    -25.483018
PE10 -26204.546345  -8891.146386  10497.416543   -536.001850
PE11 -22803.144452   -278.698011  18864.879706   2016.968558
PE12 -25230.454333 -15449.375396   1271.190200   -551.391472
PE13  23154.150291    907.094166 -18415.052732    -19.210696
PE14  -2237.606818  16345.848608  17205.053747    233.970582
PE15  25141.289258  15585.533818   -937.605478    -24.106584
PE18   7636.290831 -22362.926214 -21832.596703     99.986116
PE19    290.014382 -18264.465725  23305.121192  -2462.190962
PE21   8732.777470 -26255.423008  10515.245653   -530.899998
PE24 -16546.956816   7803.817821 -23288.031906   -115.909970
PE25  -8925.835560  26068.369737 -10812.299616   -605.582308
PE26   6977.030269 -14704.655231 -24726.085483    113.329339
PE27  16360.630039  -8662.013850  23096.599900    -57.151296
PE30  14060.183655  14461.952069  21656.990734   -198.079198
PE31 -14266.403206 -13834.247938 -21931.969456   -524.413015
PE33 -12276.156253 -20945.364998 -16945.718667   -444.053776
PE34  12454.535806  20923.757300  16821.195402    -47.063072
PE36  -7655.974950  14093.256398  24873.658214    -60.730249
PG01 -22203.916834 -14733.192101   2039.931554    183.095792
PG02  -9870.979427 -18616.495883 -15871.341844   -593.026035
PG03 -12807.011871 -10797.919510  20509.975185   -293.871276
PG04 -21228.847401  -3046.331660  15753.982317     49.496620
PG05   5824.635221  23867.429559 -10114.588915   -128.385822
PG06  -7122.719140  12851.094881  22181.034059    587.586379
PG07 -22015.917453  -3063.690253 -14433.039865    170.544799
PG08 -11497.667799 -11064.771480 -21358.977872   -123.937026
PG09 -24752.838819   6216.610231   7360.240437   -151.955323
PG10  11061.634945 -19595.476238 -13681.957379    -38.219740
PG11   7353.500325  19921.952498  15985.725166   -208.329913
PG12  11023.055098  14418.886811  19140.767703   -379.841612
PG13   2777.554043  14908.019564 -21973.341566    524.289488
PG14 -13354.046139  16786.199843 -15553.208973     67.279321
PG15  13342.596281  10087.221189 -21133.028813     42.364753
PG16   -697.933974 -25275.239883  -7628.911380   -498.260273
PG17 -21307.911361  14027.501665   8015.474959    715.936057
PG18  20068.615411     73.563930 -17478.260018   -279.080528
PG19 -15350.835295  15606.246357  14596.203333    321.062777
PG20   2180.061603  26571.757212   -318.563200    431.885815
PG21 -20199.482557 -16716.391244  -5942.921031    153.630226
PG22  11649.953823 -16930.162101  17188.287620    486.472610
PG23  14615.634101  -7810.535203 -20715.593434     26.797894
PG24  21812.556948  15331.770374  -2965.273179   -199.926153
PG25  15157.878966   1441.809610  21450.438030    444.991698
PG26   4759.402919 -25326.113982   5525.194723    240.362557
PG27    742.228819 -16347.806802 -21086.282205     30.991302
PG28   8826.718451 -12373.690561  21758.733253     79.994781
PG29  24632.144961  -2019.589234   9795.781116   -600.518702
PG30 -15422.130604   7307.690166 -20294.692948   -515.397792
PG31  -1919.266990 -18178.345368  18944.435880   -216.733340
PG32  18703.567472 -16185.076261   9589.399832   -483.937006
PJ02 -21876.253161  30727.410167 -14063.855106     -0.111705
PJ03 -28393.401358  22817.974001  26392.215580      4.817285
PJ04 -31891.793264  27131.980687  11135.129109     94.746073
PR01 -16170.747842   4953.578751  19094.609207     58.081519
PR02 -18235.440805  17522.285956   3620.465611    -22.793399
PR03  -9186.320513  19712.805900 -13324.443015     78.380475
PR04   4460.300035  10775.692170 -22653.477101    188.397670
PR05  15827.493456  -3815.699078 -19613.078033    113.033247
PR07   8479.212567 -19465.414898  14147.745670     56.520908
PR08  -4836.078342 -10662.046707  22722.575244    -70.927888
PR09   7112.935250 -11732.586823  21540.225382    121.883223
PR11 -10756.387484 -22327.640684  -6064.998813    -62.797135
PR12 -12931.927993  -7389.137866 -20678.212144     27.524154
PR13  -7947.008118   9645.101561 -22248.927627    -35.378316
PR14   2804.075333  23252.514307 -10067.567824     24.687087
PR15  11006.437728  21822.448270   7309.850163     89.161585
PR16  12911.781652   7631.218355  20632.843878     14.876880
PR17    -85.824132  10757.395266  23131.346998    632.702969
PR18  16569.659378  11067.075192  15901.094745     83.069831
PR19  24441.669404   7073.471586   1804.061725   -233.718618
PR20  18368.832267  -3242.086843 -17375.640659    -93.392618
PR21  -1434.980987 -10948.750883 -22998.176865     -9.837071
PR22 -16951.083557 -11738.299220 -15007.122525     80.830583
PR24 -17870.458532   4525.221674  17633.738110    173.006770
PR25    875.221498 -10993.115886 -22999.656765     61.853911
EOF
